NORAD_CAT_ID,OBJECT_NAME,OBJECT_TYPE,EPOCH,MEAN_MOTION,ECCENTRICITY,INCLINATION,RA_OF_ASC_NODE,ARG_OF_PERICENTER,MEAN_ANOMALY,BSTAR,MEAN_MOTION_DOT,MEAN_MOTION_DDOT,TLE_LINE0,TLE_LINE1,TLE_LINE2,SEMIMAJOR_AXIS,PERIOD,APOGEE,PERIGEE,DECAYED
49161.0,STARLINK-3080,PAYLOAD,2024-01-22 14:16:06,14.98332133,0.0002643,70.0007,93.7708,257.0341,103.0523,0.00016543,1.882e-05,0.0,0 STARLINK-3080,1 49161U 21082AH  24022.59452466  .00001882  00000-0  16543-3 0  9996,2 49161  70.0007  93.7708 0002643 257.0341 103.0523 14.98332133130654,6950.186,96.107,573.888,570.214,0.0
49161.0,STARLINK-3080,PAYLOAD,2024-01-23 06:17:27,14.98334541,0.000278,70.0005,92.0885,254.4703,105.6149,0.00016665,1.896e-05,0.0,0 STARLINK-3080,1 49161U 21082AH  24023.26212244  .00001896  00000-0  16665-3 0  9999,2 49161  70.0005  92.0885 0002780 254.4703 105.6149 14.98334541130753,6950.179,96.107,573.976,570.112,0.0
49161.0,STARLINK-3080,PAYLOAD,2024-01-23 11:05:51,14.98335157,0.000279,70.0005,91.5835,254.1806,105.9046,0.00016918,1.926e-05,0.0,0 STARLINK-3080,1 49161U 21082AH  24023.46240205  .00001926  00000-0  16918-3 0  9994,2 49161  70.0005  91.5835 0002790 254.1806 105.9046 14.98335157130780,6950.177,96.107,573.981,570.103,0.0
49161.0,STARLINK-3080,PAYLOAD,2024-01-23 14:18:07,14.98336928,0.000278,70.0004,91.2468,255.7395,104.3456,0.00018789,2.15e-05,0.0,0 STARLINK-3080,1 49161U 21082AH  24023.59592086  .00002150  00000-0  18789-3 0  9993,2 49161  70.0004  91.2468 0002780 255.7395 104.3456 14.98336928130805,6950.171,96.107,573.969,570.104,0.0
49161.0,STARLINK-3080,PAYLOAD,2024-01-24 11:07:53,14.98328337,0.0002507,70.0012,89.0596,242.9871,117.1032,2.0184e-05,1.48e-06,0.0,0 STARLINK-3080,1 49161U 21082AH  24024.46380826  .00000148  00000-0  20184-4 0  9995,2 49161  70.0012  89.0596 0002507 242.9871 117.1032 14.98328337130936,6950.198,96.107,573.805,570.321,0.0
49161.0,STARLINK-3080,PAYLOAD,2024-01-24 14:20:09,14.98328458,0.0002512,70.0009,88.7224,254.3594,105.7288,7.7868e-06,0.0,0.0,0 STARLINK-3080,1 49161U 21082AH  24024.59732911  .00000000  00000-0  77868-5 0  9994,2 49161  70.0009  88.7224 0002512 254.3594 105.7288 14.98328458130953,6950.198,96.107,573.809,570.317,0.0
49161.0,STARLINK-3080,PAYLOAD,2024-01-25 11:09:53,14.98336902,0.0002536,70.0006,86.5332,257.9085,102.179,7.4844e-05,8e-06,0.0,0 STARLINK-3080,1 49161U 21082AH  24025.46520029  .00000800  00000-0  74844-4 0  9994,2 49161  70.0006  86.5332 0002536 257.9085 102.1790 14.98336902131083,6950.172,96.107,573.799,570.274,0.0
49161.0,STARLINK-3080,PAYLOAD,2024-01-25 14:22:09,14.98337605,0.0002528,70.0006,86.1966,260.7941,99.2932,7.7086e-05,8.27e-06,0.0,0 STARLINK-3080,1 49161U 21082AH  24025.59871913  .00000827  00000-0  77086-4 0  9999,2 49161  70.0006  86.1966 0002528 260.7941  99.2932 14.98337605131104,6950.169,96.107,573.791,570.277,0.0
49161.0,STARLINK-3080,PAYLOAD,2024-01-26 11:11:54,14.98332114,0.0002629,70.0003,84.008,258.8735,101.2129,0.00013386,1.505e-05,0.0,0 STARLINK-3080,1 49161U 21082AH  24026.46660006  .00001505  00000-0  13386-3 0  9991,2 49161  70.0003  84.0080 0002629 258.8735 101.2129 14.98332114131232,6950.186,96.107,573.879,570.224,0.0
49161.0,STARLINK-3080,PAYLOAD,2024-01-26 12:48:02,14.98331715,0.0002627,70.0003,83.8396,259.9435,100.1428,0.0001258,1.408e-05,0.0,0 STARLINK-3080,1 49161U 21082AH  24026.53336031  .00001408  00000-0  12580-3 0  9994,2 49161  70.0003  83.8396 0002627 259.9435 100.1428 14.98331715131243,6950.188,96.107,573.878,570.227,0.0
49161.0,STARLINK-3080,PAYLOAD,2024-01-27 12:50:04,14.98325897,0.000266,70.0004,81.315,259.377,100.7089,-8.1217e-05,-1.062e-05,0.0,0 STARLINK-3080,1 49161U 21082AH  24027.53476886 -.00001062  00000-0 -81217-4 0  9990,2 49161  70.0004  81.3150 0002660 259.3770 100.7089 14.98325897131397,6950.206,96.107,573.919,570.222,0.0
49161.0,STARLINK-3080,PAYLOAD,2024-01-28 11:15:56,14.9833109,0.000285,70.0,78.9577,261.0871,98.9965,6.0394e-06,-2.1e-07,0.0,0 STARLINK-3080,1 49161U 21082AH  24028.46940302 -.00000021  00000-0  60394-5 0  9999,2 49161  70.0000  78.9577 0002850 261.0871  98.9965 14.98331090131530,6950.19,96.107,574.035,570.074,0.0
49161.0,STARLINK-3080,PAYLOAD,2024-01-28 12:52:04,14.98331373,0.0002886,69.9999,78.7893,264.9101,95.1728,7.2089e-06,-7e-08,0.0,0 STARLINK-3080,1 49161U 21082AH  24028.53616294 -.00000007  00000-0  72089-5 0  9995,2 49161  69.9999  78.7893 0002886 264.9101  95.1728 14.98331373131541,6950.189,96.107,574.059,570.048,0.0
49161.0,STARLINK-3080,PAYLOAD,2024-01-29 11:17:55,14.98344073,0.0002316,70.0033,76.4353,215.2551,144.8455,0.00035676,4.168e-05,0.0,0 STARLINK-3080,1 49161U 21082AH  24029.47078405  .00004168  00000-0  35676-3 0  9995,2 49161  70.0033  76.4353 0002316 215.2551 144.8455 14.98344073131680,6950.149,96.106,573.624,570.405,0.0
49161.0,STARLINK-3080,PAYLOAD,2024-01-29 12:54:03,14.98356031,0.0002936,69.9997,76.2641,270.8851,89.1971,0.00037533,4.391e-05,0.0,0 STARLINK-3080,1 49161U 21082AH  24029.53753525  .00004391  00000-0  37533-3 0  9997,2 49161  69.9997  76.2641 0002936 270.8851  89.1971 14.98356031131694,6950.112,96.105,574.018,569.937,0.0
49161.0,STARLINK-3080,PAYLOAD,2024-01-30 03:19:17,14.98331489,0.0001138,70.0038,74.7516,263.7468,96.3562,0.000167,1.9e-05,0.0,0 STARLINK-3080,1 49161U 21082AH  24030.13839485  .00001900  00000-0  16700-3 0  9991,2 49161  70.0038  74.7516 0001138 263.7468  96.3562 14.98331489131781,6950.188,96.107,572.844,571.262,0.0
49161.0,STARLINK-3080,PAYLOAD,2024-01-30 11:19:58,14.98327008,0.0003083,69.9991,73.9077,267.9986,92.082,-6.3015e-05,-8.45e-06,0.0,0 STARLINK-3080,1 49161U 21082AH  24030.47220123 -.00000845  00000-0 -63015-4 0  9992,2 49161  69.9991  73.9077 0003083 267.9986  92.0820 14.98327008131839,6950.202,96.107,574.21,569.924,0.0
49161.0,STARLINK-3080,PAYLOAD,2024-01-30 12:56:06,14.98326754,0.000306,69.9991,73.7391,265.6074,94.4735,-6.6425e-05,-8.85e-06,0.0,0 STARLINK-3080,1 49161U 21082AH  24030.53896130 -.00000885  00000-0 -66425-4 0  9998,2 49161  69.9991  73.7391 0003060 265.6074  94.4735 14.98326754131843,6950.203,96.107,574.195,569.941,0.0
49161.0,STARLINK-3080,PAYLOAD,2024-01-31 03:21:18,14.98339733,0.0002692,69.9988,72.224,254.4776,105.6086,-0.00026914,-3.304e-05,0.0,0 STARLINK-3080,1 49161U 21082AH  24031.13979966 -.00003304  00000-0 -26914-3 0  9991,2 49161  69.9988  72.2240 0002692 254.4776 105.6086 14.98339733131936,6950.163,96.106,573.899,570.157,0.0
49161.0,STARLINK-3080,PAYLOAD,2024-01-31 12:58:06,14.98343747,0.0002824,69.9993,71.2136,266.5165,93.5671,-0.00018801,-2.336e-05,0.0,0 STARLINK-3080,1 49161U 21082AH  24031.54035282 -.00002336  00000-0 -18801-3 0  9990,2 49161  69.9993  71.2136 0002824 266.5165  93.5671 14.98343747131999,6950.15,96.106,573.978,570.053,0.0
49161.0,STARLINK-3080,PAYLOAD,2024-02-01 03:23:19,14.98319365,0.0002604,69.9996,69.6979,264.9287,95.1575,9.3807e-05,1.026e-05,0.0,0 STARLINK-3080,1 49161U 21082AH  24032.14120120  .00001026  00000-0  93807-4 0  9996,2 49161  69.9996  69.6979 0002604 264.9287  95.1575 14.98319365132082,6950.226,96.108,573.901,570.281,0.0
49161.0,STARLINK-3080,PAYLOAD,2024-02-01 11:24:00,14.98319912,0.0002601,69.9996,68.8565,264.7012,95.385,9.0479e-05,9.86e-06,0.0,0 STARLINK-3080,1 49161U 21082AH  24032.47500332  .00000986  00000-0  90479-4 0  9995,2 49161  69.9996  68.8565 0002601 264.7012  95.3850 14.98319912132137,6950.224,96.108,573.897,570.281,0.0
49161.0,STARLINK-3080,PAYLOAD,2024-02-02 03:25:20,14.98331001,0.0002625,69.9995,67.1732,263.4114,96.6747,8.0506e-05,8.68e-06,0.0,0 STARLINK-3080,1 49161U 21082AH  24033.14259867  .00000868  00000-0  80506-4 0  9993,2 49161  69.9995  67.1732 0002625 263.4114  96.6747 14.98331001132232,6950.19,96.107,573.879,570.23,0.0
49161.0,STARLINK-3080,PAYLOAD,2024-02-02 11:26:00,14.98332227,0.0002588,69.9996,66.3318,261.4129,98.6737,9.1249e-05,9.96e-06,0.0,0 STARLINK-3080,1 49161U 21082AH  24033.47639754  .00000996  00000-0  91249-4 0  9994,2 49161  69.9996  66.3318 0002588 261.4129  98.6737 14.98332227132283,6950.186,96.107,573.85,570.252,0.0
49161.0,STARLINK-3080,PAYLOAD,2024-02-03 03:27:21,14.9832575,0.0002513,69.9998,64.6492,257.1898,102.898,5.9218e-05,6.14e-06,0.0,0 STARLINK-3080,1 49161U 21082AH  24034.14400295  .00000614  00000-0  59218-4 0  9992,2 49161  69.9998  64.6492 0002513 257.1898 102.8980 14.98325750132384,6950.206,96.107,573.818,570.324,0.0
49161.0,STARLINK-3080,PAYLOAD,2024-02-03 11:28:02,14.98325947,0.0002564,69.9996,63.8071,261.4038,98.6831,5.3564e-05,5.46e-06,0.0,0 STARLINK-3080,1 49161U 21082AH  24034.47780447  .00000546  00000-0  53564-4 0  9990,2 49161  69.9996  63.8071 0002564 261.4038  98.6831 14.98325947132437,6950.205,96.107,573.852,570.288,0.0
49161.0,STARLINK-3080,PAYLOAD,2024-02-03 19:28:42,14.9833088,0.0002571,69.9995,62.9637,266.5692,93.5173,4.2071e-05,4.09e-06,0.0,0 STARLINK-3080,1 49161U 21082AH  24034.81160224  .00000409  00000-0  42071-4 0  9992,2 49161  69.9995  62.9637 0002571 266.5692  93.5173 14.98330880132484,6950.19,96.107,573.842,570.268,0.0
49161.0,STARLINK-3080,PAYLOAD,2024-02-04 03:29:22,14.98335254,0.0002681,69.9992,62.1223,267.7487,92.3365,4.1445e-05,4.02e-06,0.0,0 STARLINK-3080,1 49161U 21082AH  24035.14539851  .00000402  00000-0  41445-4 0  9992,2 49161  69.9992  62.1223 0002681 267.7487  92.3365 14.98335254132537,6950.177,96.107,573.905,570.178,0.0
49161.0,STARLINK-3080,PAYLOAD,2024-02-04 11:30:02,14.98338788,0.0002576,69.9996,61.2809,265.0334,95.0531,0.00012542,1.404e-05,0.0,0 STARLINK-3080,1 49161U 21082AH  24035.47919373  .00001404  00000-0  12542-3 0  9997,2 49161  69.9996  61.2809 0002576 265.0334  95.0531 14.98338788132581,6950.166,96.106,573.821,570.24,0.0
49161.0,STARLINK-3080,PAYLOAD,2024-02-05 03:31:23,14.98326045,0.0002386,70.0004,59.5982,250.0902,110.0,6.8231e-05,7.21e-06,0.0,0 STARLINK-3080,1 49161U 21082AH  24036.14680067  .00000721  00000-0  68231-4 0  9995,2 49161  70.0004  59.5982 0002386 250.0902 110.0000 14.98326045132683,6950.205,96.107,573.728,570.412,0.0
